STARLINK-30538          
1 57994U 23153D   26080.77334823  .00002823  00000+0  11199-3 0  9999
2 57994  43.0066 358.8772 0001505 268.5996  91.4683 15.27602889136640
STARLINK-30517          
1 57995U 23153E   26080.85110678 -.00008590  00000+0 -31086-3 0  9995
2 57995  43.0010 358.5986 0003402 298.5343  61.5166 15.26738642136753
STARLINK-30523          
1 57997U 23153G   26080.83467802  .00053313  00000+0  19592-2 0  9997
2 57997  43.0083 358.4813 0002376 192.1131 167.9664 15.27134793136758
STARLINK-30531          
1 57998U 23153H   26080.75706927 -.00001942  00000+0 -62692-4 0  9997
2 57998  43.0030 358.7556 0001319 263.9980  96.0721 15.26753113136740
STARLINK-30552          
1 57999U 23153J   26080.78406839  .00013035  00000+0  49416-3 0  9992
2 57999  43.0026 358.9589 0001482 285.6755  74.3932 15.26780633136746
STARLINK-30545          
1 58000U 23153K   26080.93356038 -.00007769  00000+0 -27335-3 0  9993
2 58000  43.0003 357.4933 0002353 300.8145  59.2474 15.27544620136774
STARLINK-30535          
1 58001U 23153L   26080.93741619 -.00006356  00000+0 -22189-3 0  9990
2 58001  43.0008 357.5207 0001649 257.0582 103.0086 15.27544982136778
STARLINK-30540          
1 58002U 23153M   26079.50922585 -.00004672  00000+0 -16056-3 0  9990
2 58002  43.0075   5.7137 0001218 252.7996 107.2723 15.27536041136456
STARLINK-30546          
1 58003U 23153N   26080.91667824  .01759533  00000+0  50242-1 0  9995
2 58003  43.0011 357.4887 0001578 280.7406  29.1039 15.31963494  5539
STARLINK-30539          
1 58004U 23153P   26080.80344956  .00002250  00000+0  93500-4 0  9995
2 58004  43.0025 358.2381 0002028 263.0555  97.0066 15.26756296136749
STARLINK-30530          
1 58005U 23153Q   26080.75350224  .00005494  00000+0  21417-3 0  9995
2 58005  43.0037 358.7191 0001094 240.4097 119.6646 15.26769330136747
STARLINK-30526          
1 58006U 23153R   26080.76973031  .00004518  00000+0  18236-3 0  9995
2 58006  43.0050 333.6633 0001422 258.5794 101.4897 15.25928158137039
STARLINK-30527          
1 58007U 23153S   26080.55068252  .00002741  00000+0  10904-3 0  9993
2 58007  43.0015 131.3919 0001008 258.7559 101.3180 15.27592621139278
STARLINK-30522          
1 58008U 23153T   26080.92137811 -.00003763  00000+0 -13080-3 0  9998
2 58008  43.0028 358.2552 0001395 280.2482  79.8212 15.26709675136764
STARLINK-30486          
1 58009U 23153U   26080.91667824 -.00001595  00000+0 -48472-4 0  9995
2 58009  43.0039 357.7897 0001863 273.0556 269.2937 15.27556798  5777
STARLINK-30520          
1 58010U 23153V   26080.80531229 -.00001264  00000+0 -36366-4 0  9996
2 58010  43.0000 358.2411 0000737 273.0086  87.0682 15.27626404136659
STARLINK-30497          
1 58011U 23153W   26080.93996030 -.00000177  00000+0  30873-5 0  9995
2 58011  43.0019 357.5313 0001728 256.2891 103.7768 15.27582410136773
STARLINK-30525          
1 58012U 23153X   26080.49383027  .00002503  00000+0  10042-3 0  9991
2 58012  43.0043   0.2041 0000931 272.8789  87.1956 15.27590354136709
THEOS-2 (T2V)           
1 58016U 23155A   26080.99563581  .00000978  00000+0  13121-3 0  9992
2 58016  97.8938 153.2680 0001363  97.7182 262.4186 14.81586375132517
FORMOSAT-7R (TRITON)    
1 58017U 23155B   26080.65911862  .00001770  00000+0  18556-3 0  9993
2 58017  97.8380 162.6782 0001901  60.3015 299.8392 14.90827854133182
ANSER FOLLOWER 2        
1 58018U 23155C   26080.95420477  .00076220  00000+0  19490-2 0  9993
2 58018  97.5553 166.8474 0001086 180.5330 179.5914 15.39156151135506
ANSER FOLLOWER 1        
1 58019U 23155D   26080.95300834  .00026737  00000+0  69168-3 0  9994
2 58019  97.5588 167.4623 0001126 118.7417 241.3941 15.39061615135500
NESS                    
1 58020U 23155E   26080.69073126  .00026061  00000+0  97618-3 0  9999
2 58020  97.5926 164.7487 0007535 142.7698 217.4064 15.27234241135126
CSC-2                   
1 58021U 23155F   26080.96512102  .00016187  00000+0  75094-3 0  9994
2 58021  97.5470 157.4970 0005637 167.0699 193.0681 15.20114876134924
CSC-1                   
1 58022U 23155G   26080.93274550  .00004297  00000+0  26724-3 0  9999
2 58022  97.5431 151.7392 0008514 169.6902 190.4504 15.10128116134565
PRETTY                  
1 58023U 23155H   26080.69061291  .00021384  00000+0  92156-3 0  9997
2 58023  97.5717 161.5420 0001258  44.3804 315.7532 15.22593485135036
MACSAT (FINCH 1)        
1 58024U 23155J   26080.67324099  .00005631  00000+0  26612-3 0  9995
2 58024  97.5804 162.2402 0003033  44.5420 315.6058 15.19807619135036
PVCC                    
1 58025U 23155K   26080.97661532  .00010177  00000+0  55034-3 0  9996
2 58025  97.5745 157.8091 0005721  81.4231 278.7649 15.14853577134775
STARLINK-30514          
1 58028U 23156A   26080.02025923  .00000530  00000+0  30004-4 0  9997
2 58028  53.1622  25.5412 0001002 101.2053 258.9061 15.30197008138050
STARLINK-30518          
1 58029U 23156B   26080.16039543  .00003064  00000+0  11561-3 0  9997
2 58029  53.1621  25.0001 0001305 106.8401 253.2743 15.30175934138074
STARLINK-30549          
1 58030U 23156C   26080.12142086  .00001624  00000+0  66951-4 0  9996
2 58030  53.1618  25.2801 0001287  82.4494 277.6653 15.30199990138014
STARLINK-30556          
1 58031U 23156D   26080.85770654  .00008093  00000+0  28513-3 0  9993
2 58031  53.1614  31.8732 0001485  89.9776 270.1395 15.30191373138021
STARLINK-30561          
1 58032U 23156E   26080.84620118  .00002682  00000+0  10263-3 0  9993
2 58032  53.1625  21.9826 0001233  93.2806 266.8336 15.30209285138176
STARLINK-30562          
1 58033U 23156F   26080.81741545  .00001151  00000+0  51002-4 0  9996
2 58033  53.1584 111.5576 0001682  91.6174 268.5020 15.30196872136890
STARLINK-30565          
1 58034U 23156G   26080.06455613  .00002549  00000+0  98125-4 0  9991
2 58034  53.1603  25.6401 0001605  84.9096 275.2088 15.30213498138051
STARLINK-30438          
1 58035U 23156H   26080.86404370 -.00006006  00000+0 -19047-3 0  9993
2 58035  53.1636  21.5614 0001916  84.7004 275.4216 15.30252967138139
STARLINK-30437          
1 58036U 23156J   26080.54592746  .00001966  00000+0  78453-4 0  9999
2 58036  53.1614  23.1259 0001135  97.3021 262.8109 15.30209196138082
STARLINK-30533          
1 58037U 23156K   26080.38978459  .00018029  00000+0  61893-3 0  9998
2 58037  53.1578 113.8540 0001629  86.1783 273.9404 15.30221787136822
STARLINK-30560          
1 58038U 23156L   26080.56216690  .00002105  00000+0  83143-4 0  9992
2 58038  53.1616  20.3817 0001026 105.2809 254.8305 15.30208838138123
STARLINK-30555          
1 58040U 23156N   26080.38238058  .00001885  00000+0  75723-4 0  9996
2 58040  53.1601 113.8270 0000974 105.7776 254.3332 15.30214675136826
STARLINK-30542          
1 58041U 23156P   26080.85988685 -.00001117  00000+0 -25606-4 0  9992
2 58041  53.1608  21.7008 0000869  79.0877 281.0221 15.30188823138177
STARLINK-30563          
1 58042U 23156Q   26080.79291043  .00004145  00000+0  15194-3 0  9993
2 58042  53.1638  19.5396 0001310  99.9919 260.1230 15.30214226138205
STARLINK-30564          
1 58043U 23156R   26080.84937145 -.00014177  00000+0 -46657-3 0  9996
2 58043  53.1604  22.0052 0000225 292.7984  67.2993 15.30262882138175
STARLINK-30547          
1 58044U 23156S   26080.78481345  .00001150  00000+0  50954-4 0  9997
2 58044  53.1594 112.0272 0001294  77.2235 282.8910 15.30200107136882
STARLINK-30550          
1 58045U 23156T   26080.89024240  .00001096  00000+0  49116-4 0  9994
2 58045  53.1609 304.6804 0001361  83.0354 277.0802 15.30197482139242
STARLINK-30548          
1 58046U 23156U   26080.77954581  .00009765  00000+0  34123-3 0  9994
2 58046  53.1567 112.0420 0001510  87.3003 272.8171 15.30214881136832
STARLINK-30529          
1 58047U 23156V   26080.34977787  .00001298  00000+0  55948-4 0  9993
2 58047  53.1606 114.3187 0001339  96.1419 263.9734 15.30190673136760
STARLINK-30554          
1 58048U 23156W   26080.37288405  .00006496  00000+0  23119-3 0  9998
2 58048  53.1574 113.7676 0001171  96.8998 263.2136 15.30208863136775
STARLINK-30568          
1 58051U 23158A   26080.71045106  .00007164  00000+0  26945-3 0  9994
2 58051  43.0071 319.5660 0001365 257.5969 102.4730 15.27601421135391
STARLINK-30575          
1 58052U 23158B   26080.70659556  .00005406  00000+0  20579-3 0  9998
2 58052  43.0042 319.5397 0001118 274.3178  85.7546 15.27584605135406
STARLINK-30577          
1 58053U 23158C   26080.93603294 -.00000427  00000+0 -60088-5 0  9993
2 58053  42.9997 317.8045 0000664 278.2975  81.7801 15.27569276135449
STARLINK-30566          
1 58054U 23158D   26080.92833769 -.00222631  00000+0 -83474-2 0  9999
2 58054  42.9996 317.7709 0006218 280.6103  79.4048 15.27470211135443
STARLINK-30544          
1 58055U 23158E   26080.39366441  .00004505  00000+0  17316-3 0  9998
2 58055  43.0042 320.6356 0001415 237.4484 122.6231 15.27577983135365
STARLINK-30553          
1 58056U 23158F   26080.93090588 -.00002350  00000+0 -75976-4 0  9990
2 58056  43.0016 317.7846 0000612 235.0550 125.0244 15.27560084135448
STARLINK-30541          
1 58057U 23158G   26079.09364578  .00002651  00000+0  10583-3 0  9993
2 58057  43.0002 328.0827 0001465 273.1618  86.9066 15.27582014135166
STARLINK-30573          
1 58058U 23158H   26080.93475418  .00000175  00000+0  15894-4 0  9995
2 58058  43.0034 317.8112 0002420 270.4798  89.5777 15.27578435135447
STARLINK-30582          
1 58059U 23158J   26080.71672380 -.00003703  00000+0 -12498-3 0  9997
2 58059  43.0057 318.7632 0001219 260.9285  99.1428 15.27614348135411
STARLINK-30558          
1 58060U 23158K   26079.97965765  .00002526  00000+0  10129-3 0  9996
2 58060  43.0023 323.5269 0001254 266.4143  93.6566 15.27580537135299
STARLINK-30579          
1 58061U 23158L   26080.31477424  .00003646  00000+0  14191-3 0  9994
2 58061  43.0032 295.5949 0001919 266.7446  93.3186 15.27592583135648
